NORAD_CAT_ID,OBJECT_NAME,OBJECT_TYPE,EPOCH,MEAN_MOTION,ECCENTRICITY,INCLINATION,RA_OF_ASC_NODE,ARG_OF_PERICENTER,MEAN_ANOMALY,BSTAR,MEAN_MOTION_DOT,MEAN_MOTION_DDOT,TLE_LINE0,TLE_LINE1,TLE_LINE2,SEMIMAJOR_AXIS,PERIOD,APOGEE,PERIGEE,DECAYED
50182.0,STARLINK-3277,PAYLOAD,2022-08-29 08:37:04,15.08838616,0.0001931,53.2183,272.6702,48.7161,311.3997,8.750899999999999e-05,1.105e-05,0.0,0 STARLINK-3277,1 50182U 21125AC  22241.35907986  .00001105  00000-0  87509-4 0  9995,2 50182  53.2183 272.6702 0001931  48.7161 311.3997 15.08838616 42147,6917.885,95.438,541.085,538.414,0.0
50182.0,STARLINK-3277,PAYLOAD,2022-08-29 13:23:13,15.08839575,0.0001943,53.2181,271.7781,48.6517,311.4642,9.1271e-05,1.165e-05,0.0,0 STARLINK-3277,1 50182U 21125AC  22241.55779943  .00001165  00000-0  91271-4 0  9994,2 50182  53.2181 271.7781 0001943  48.6517 311.4642 15.08839575 41657,6917.882,95.438,541.091,538.403,0.0
50182.0,STARLINK-3277,PAYLOAD,2022-08-29 19:44:46,15.08843124,0.0001953,53.2182,270.5887,49.0981,311.018,0.00011491,1.541e-05,0.0,0 STARLINK-3277,1 50182U 21125AC  22241.82275780  .00001541  00000-0  11491-3 0  9997,2 50182  53.2182 270.5887 0001953  49.0981 311.0180 15.08843124 42214,6917.871,95.437,541.087,538.385,0.0
50182.0,STARLINK-3277,PAYLOAD,2022-08-30 05:17:06,15.08828601,0.0002186,53.2181,268.8045,33.6111,326.5019,-6.6714e-05,-1.35e-05,0.0,0 STARLINK-3277,1 50182U 21125AC  22242.22021140 -.00001350  00000-0 -66714-4 0  9990,2 50182  53.2181 268.8045 0002186  33.6111 326.5019 15.08828601 41755,6917.915,95.438,541.2919999999998,538.268,0.0
50182.0,STARLINK-3277,PAYLOAD,2022-08-30 11:38:39,15.0882351,0.0001956999999999,53.2177,267.6157,45.0085,315.1066,-0.00010896,-2.021e-05,0.0,0 STARLINK-3277,1 50182U 21125AC  22242.48517773 -.00002021  00000-0 -10896-3 0  9995,2 50182  53.2177 267.6157 0001957  45.0085 315.1066 15.08823510 42316,6917.931,95.439,541.15,538.442,0.0
50182.0,STARLINK-3277,PAYLOAD,2022-08-31 11:29:26,15.08825804,0.0002016,53.2176,263.1553,46.4279,313.6881,-8.345e-05,-1.616e-05,0.0,0 STARLINK-3277,1 50182U 21125AC  22243.47878458 -.00001616  00000-0 -83450-4 0  9991,2 50182  53.2176 263.1553 0002016  46.4279 313.6881 15.08825804 41947,6917.924,95.438,541.183,538.394,0.0
50182.0,STARLINK-3277,PAYLOAD,2022-09-01 03:23:17,15.08837202,0.0001796,53.2184,260.181,50.9201,309.195,-5.7812e-06,-3.8e-06,0.0,0 STARLINK-3277,1 50182U 21125AC  22244.14117732 -.00000380  00000-0 -57812-5 0  9998,2 50182  53.2184 260.1810 0001796  50.9201 309.1950 15.08837202 42042,6917.889,95.438,540.996,538.511,0.0
50182.0,STARLINK-3277,PAYLOAD,2022-09-01 09:44:50,15.08835416,0.0002028,53.2175,258.9924,45.2997,314.816,0.00019215,2.771e-05,0.0,0 STARLINK-3277,1 50182U 21125AC  22244.40613428  .00002771  00000-0  19215-3 0  9997,2 50182  53.2175 258.9924 0002028  45.2997 314.8160 15.08835416 42604,6917.894,95.438,541.1619999999998,538.356,0.0
50182.0,STARLINK-3277,PAYLOAD,2022-09-01 17:41:45,15.08837396,0.0002052,53.2177,257.5056,46.1517,313.9644,0.000218,3.183e-05,0.0,0 STARLINK-3277,1 50182U 21125AC  22244.73733380  .00003183  00000-0  21800-3 0  9994,2 50182  53.2177 257.5056 0002052  46.1517 313.9644 15.08837396 42653,6917.888000000001,95.438,541.173,538.3340000000002,0.0
50182.0,STARLINK-3277,PAYLOAD,2022-09-02 06:24:50,15.08843365,0.0002059,53.2174,255.1262,44.7338,315.3819,0.00018887,2.719e-05,0.0,0 STARLINK-3277,1 50182U 21125AC  22245.26725144  .00002719  00000-0  18887-3 0  9997,2 50182  53.2174 255.1262 0002059  44.7338 315.3819 15.08843365 42210,6917.87,95.437,541.159,538.311,0.0
50182.0,STARLINK-3277,PAYLOAD,2022-09-02 11:11:00,15.08842833,0.0002126,53.2171,254.2341,42.348,317.7676,0.00017497,2.498e-05,0.0,0 STARLINK-3277,1 50182U 21125AC  22245.46597230  .00002498  00000-0  17497-3 0  9992,2 50182  53.2171 254.2341 0002126  42.3480 317.7676 15.08842833 42768,6917.871999999999,95.437,541.207,538.266,0.0
50182.0,STARLINK-3277,PAYLOAD,2022-09-03 04:40:15,15.08840326,0.0002149,53.2171,250.9629,42.7706,317.3453,-4.239600000000001e-05,-9.63e-06,0.0,0 STARLINK-3277,1 50182U 21125AC  22246.19462058 -.00000963  00000-0 -42396-4 0  9996,2 50182  53.2171 250.9629 0002149  42.7706 317.3453 15.08840326 42359,6917.879,95.438,541.231,538.258,0.0
50182.0,STARLINK-3277,PAYLOAD,2022-09-03 09:26:24,15.08843139,0.0002188,53.2172,250.0709,42.9669,317.1493,-1.8935e-05,-5.9e-06,0.0,0 STARLINK-3277,1 50182U 21125AC  22246.39333760 -.00000590  00000-0 -18935-4 0  9993,2 50182  53.2172 250.0709 0002188  42.9669 317.1493 15.08843139 42901,6917.871,95.437,541.249,538.222,0.0
50182.0,STARLINK-3277,PAYLOAD,2022-09-04 04:31:01,15.0885079,0.0002165,53.217,246.5026,46.403,313.7141,6.4013e-06,-1.86e-06,0.0,0 STARLINK-3277,1 50182U 21125AC  22247.18820724 -.00000186  00000-0  64013-5 0  9991,2 50182  53.2170 246.5026 0002165  46.4030 313.7141 15.08850790 42506,6917.847,95.437,541.21,538.215,0.0
50182.0,STARLINK-3277,PAYLOAD,2022-09-04 09:17:10,15.08852262,0.0002264,53.2175,245.6107,44.3449,315.7724,3.2953e-05,2.36e-06,0.0,0 STARLINK-3277,1 50182U 21125AC  22247.38692455  .00000236  00000-0  32953-4 0  9993,2 50182  53.2175 245.6107 0002264  44.3449 315.7724 15.08852262 43058,6917.843000000003,95.437,541.274,538.1419999999998,0.0
50182.0,STARLINK-3277,PAYLOAD,2022-09-04 17:14:05,15.08856186,0.000213,53.2175,244.1237,47.4449,312.6722,8.471100000000001e-05,1.061e-05,0.0,0 STARLINK-3277,1 50182U 21125AC  22247.71811846  .00001061  00000-0  84711-4 0  9993,2 50182  53.2175 244.1237 0002130  47.4449 312.6722 15.08856186 43101,6917.831,95.437,541.169,538.222,0.0
50182.0,STARLINK-3277,PAYLOAD,2022-09-05 09:07:57,15.08845848,0.0002101,53.2178,241.1501,47.8696,312.2475,5.9209e-05,6.54e-06,0.0,0 STARLINK-3277,1 50182U 21125AC  22248.38052269  .00000654  00000-0  59209-4 0  9994,2 50182  53.2178 241.1501 0002101  47.8696 312.2475 15.08845848 42687,6917.863,95.437,541.181,538.274,0.0
50182.0,STARLINK-3277,PAYLOAD,2022-09-06 08:58:44,15.08838699,0.0002106,53.2181,236.6898,49.1146,311.0029,-7.1119e-05,-1.42e-05,0.0,0 STARLINK-3277,1 50182U 21125AC  22249.37412660 -.00001420  00000-0 -71119-4 0  9997,2 50182  53.2181 236.6898 0002106  49.1146 311.0029 15.08838699 43352,6917.884,95.438,541.206,538.2919999999998,0.0
50182.0,STARLINK-3277,PAYLOAD,2022-09-07 10:24:55,15.08813448,0.0002114,53.2182,231.9312,47.6484,312.4687,0.0001615,2.281e-05,0.0,0 STARLINK-3277,1 50182U 21125AC  22250.43397892  .00002281  00000-0  16150-3 0  9992,2 50182  53.2182 231.9312 0002114  47.6484 312.4687 15.08813448 42998,6917.962,95.439,541.289,538.364,0.0
50182.0,STARLINK-3277,PAYLOAD,2022-09-08 02:18:46,15.08833135,0.0002101,53.2181,228.9582,43.274,316.8416,2.7994e-05,1.57e-06,0.0,0 STARLINK-3277,1 50182U 21125AC  22251.09637316  .00000157  00000-0  27994-4 0  9992,2 50182  53.2181 228.9582 0002101  43.2740 316.8416 15.08833135 43090,6917.901,95.438,541.22,538.313,0.0
50182.0,STARLINK-3277,PAYLOAD,2022-09-08 08:40:19,15.0883478,0.0002116,53.2183,227.769,45.13,314.9864,7.7656e-05,9.48e-06,0.0,0 STARLINK-3277,1 50182U 21125AC  22251.36133181  .00000948  00000-0  77656-4 0  9991,2 50182  53.2183 227.7690 0002116  45.1300 314.9864 15.08834780 43653,6917.896,95.438,541.225,538.298,0.0
50182.0,STARLINK-3277,PAYLOAD,2022-09-08 15:01:51,15.08835159,0.0002131999999999,53.2184,226.5794,45.476000000000006,314.6406,8.2474e-05,1.024e-05,0.0,0 STARLINK-3277,1 50182U 21125AC  22251.62629247  .00001024  00000-0  82474-4 0  9993,2 50182  53.2184 226.5794 0002132  45.4760 314.6406 15.08835159 43691,6917.895,95.438,541.235,538.285,0.0
50182.0,STARLINK-3277,PAYLOAD,2022-09-09 02:09:32,15.08844348,0.0002126,53.2181,224.4982,44.3161,315.8001,0.00018338,2.632e-05,0.0,0 STARLINK-3277,1 50182U 21125AC  22252.08996490  .00002632  00000-0  18338-3 0  9994,2 50182  53.2181 224.4982 0002126  44.3161 315.8001 15.08844348 43245,6917.8669999999975,95.437,541.203,538.261,0.0
50182.0,STARLINK-3277,PAYLOAD,2022-09-09 06:55:43,15.08836713,0.0002563,53.2187,223.6064,35.92,324.1964,0.00010898,1.446e-05,0.0,0 STARLINK-3277,1 50182U 21125AC  22252.28869248  .00001446  00000-0  10898-3 0  9991,2 50182  53.2187 223.6064 0002563  35.9200 324.1964 15.08836713 43796,6917.89,95.438,541.528,537.982,0.0
50182.0,STARLINK-3277,PAYLOAD,2022-09-10 03:35:43,15.08872192,0.0001843,53.2175,219.7413,40.8268,319.2862,-0.00046594,-7.703e-05,0.0,0 STARLINK-3277,1 50182U 21125AC  22253.14981174 -.00007703  00000-0 -46594-3 0  9996,2 50182  53.2175 219.7413 0001843  40.8268 319.2862 15.08872192 43407,6917.781999999997,95.436,540.922,538.372,0.0
50182.0,STARLINK-3277,PAYLOAD,2022-09-10 06:46:30,15.08835026,0.0002018,53.2177,219.1467,44.8654,315.2501,-2.9143e-05,-7.52e-06,0.0,0 STARLINK-3277,1 50182U 21125AC  22253.28229832 -.00000752  00000-0 -29143-4 0  9996,2 50182  53.2177 219.1467 0002018  44.8654 315.2501 15.08835026 43423,6917.896,95.438,541.1569999999998,538.365,0.0
50182.0,STARLINK-3277,PAYLOAD,2022-09-11 05:01:53,15.08845737,0.0002017,53.2175,214.9842,44.6546,315.4609,-4.5231e-05,-1.008e-05,0.0,0 STARLINK-3277,1 50182U 21125AC  22254.20965055 -.00001008  00000-0 -45231-4 0  9994,2 50182  53.2175 214.9842 0002017  44.6546 315.4609 15.08845737 43564,6917.863,95.437,541.123,538.3330000000002,0.0
50182.0,STARLINK-3277,PAYLOAD,2022-09-11 12:58:49,15.08838892,0.0002103,53.2177,213.4972,43.4045,316.7112,-6.6903e-06,-3.95e-06,0.0,0 STARLINK-3277,1 50182U 21125AC  22254.54085377 -.00000395  00000-0 -66903-5 0  9999,2 50182  53.2177 213.4972 0002103  43.4045 316.7112 15.08838892 44132,6917.884,95.438,541.2040000000002,538.294,0.0
50182.0,STARLINK-3277,PAYLOAD,2022-09-11 20:55:45,15.08842795,0.0002015,53.218,212.0097,42.3482,317.7665,-1.4822e-05,-5.24e-06,0.0,0 STARLINK-3277,1 50182U 21125AC  22254.87205216 -.00000524  00000-0 -14822-4 0  9997,2 50182  53.2180 212.0097 0002015  42.3482 317.7665 15.08842795 44180,6917.871999999999,95.437,541.131,538.3430000000002,0.0
